{
  "type": "FeatureCollection",
  "features": [
    {
      "type": "Feature",
      "properties": {
        "norad_id": 31825,
        "name": "FENGYUN 1C DEB",
        "group": "fengyun-1c-debris",
        "lat": -75.70096904546773,
        "lon": 138.60738748079362,
        "alt_km": 755.8810180510181,
        "timestamp": "2025-12-21T14:40:48.201018+00:00",
        "meta_object_name": "FENGYUN 1C DEB",
        "meta_object_id": "1999-025CHP",
        "meta_epoch": "2025-12-21T05:00:31.227264",
        "meta_mean_motion": 14.21674081,
        "meta_eccentricity": 0.01651621,
        "meta_inclination": 98.5901,
        "meta_ra_of_asc_node": 354.5886,
        "meta_arg_of_pericenter": 313.6987,
        "meta_mean_anomaly": 45.0606,
        "meta_ephemeris_type": 0,
        "meta_classification_type": "U",
        "meta_norad_cat_id": 31825,
        "meta_element_set_no": 999,
        "meta_rev_at_epoch": 95742,
        "meta_bstar": 0.00053951425,
        "meta_mean_motion_dot": 1.315e-05,
        "meta_mean_motion_ddot": 0,
        "tle_line1": "1 31825U 99025CHP 25355.20869476  .00001315  00000+0  53951-3 0  9991",
        "tle_line2": "2 31825  98.5901 354.5886 0165162 313.6987  45.0606 14.21674081957422"
      },
      "geometry": {
        "type": "Point",
        "coordinates": [
          138.60738748079362,
          -75.70096904546773
        ]
      }
    },
    {
      "type": "Feature",
      "properties": {
        "norad_id": 31826,
        "name": "FENGYUN 1C DEB",
        "group": "fengyun-1c-debris",
        "lat": 46.397772427505956,
        "lon": -22.664862713672147,
        "alt_km": 862.7389181139351,
        "timestamp": "2025-12-21T14:40:48.201028+00:00",
        "meta_object_name": "FENGYUN 1C DEB",
        "meta_object_id": "1999-025CHQ",
        "meta_epoch": "2025-12-19T10:43:46.840224",
        "meta_mean_motion": 14.19284767,
        "meta_eccentricity": 0.0124248,
        "meta_inclination": 98.6261,
        "meta_ra_of_asc_node": 344.3988,
        "meta_arg_of_pericenter": 169.9171,
        "meta_mean_anomaly": 344.9058,
        "meta_ephemeris_type": 0,
        "meta_classification_type": "U",
        "meta_norad_cat_id": 31826,
        "meta_element_set_no": 999,
        "meta_rev_at_epoch": 95909,
        "meta_bstar": 0.00024759,
        "meta_mean_motion_dot": 5.19e-06,
        "meta_mean_motion_ddot": 0,
        "tle_line1": "1 31826U 99025CHQ 25353.44706991  .00000519  00000+0  24759-3 0  9997",
        "tle_line2": "2 31826  98.6261 344.3988 0124248 169.9171 344.9058 14.19284767959092"
      },
      "geometry": {
        "type": "Point",
        "coordinates": [
          -22.664862713672147,
          46.397772427505956
        ]
      }
    },
    {
      "type": "Feature",
      "properties": {
        "norad_id": 31829,
        "name": "FENGYUN 1C DEB",
        "group": "fengyun-1c-debris",
        "lat": -18.604260836008756,
        "lon": 167.98517293451928,
        "alt_km": 1053.504518816383,
        "timestamp": "2025-12-21T14:40:48.201039+00:00",
        "meta_object_name": "FENGYUN 1C DEB",
        "meta_object_id": "1999-025CHT",
        "meta_epoch": "2025-12-21T05:13:23.143872",
        "meta_mean_motion": 13.88692199,
        "meta_eccentricity": 0.01692807,
        "meta_inclination": 98.8356,
        "meta_ra_of_asc_node": 164.6103,
        "meta_arg_of_pericenter": 141.4029,
        "meta_mean_anomaly": 31.7276,
        "meta_ephemeris_type": 0,
        "meta_classification_type": "U",
        "meta_norad_cat_id": 31829,
        "meta_element_set_no": 999,
        "meta_rev_at_epoch": 94265,
        "meta_bstar": 0.00030282343,
        "meta_mean_motion_dot": 3.69e-06,
        "meta_mean_motion_ddot": 0,
        "tle_line1": "1 31829U 99025CHT 25355.21762898  .00000369  00000+0  30282-3 0  9996",
        "tle_line2": "2 31829  98.8356 164.6103 0169280 141.4029  31.7276 13.88692199942650"
      },
      "geometry": {
        "type": "Point",
        "coordinates": [
          167.98517293451928,
          -18.604260836008756
        ]
      }
    },
    {
      "type": "Feature",
      "properties": {
        "norad_id": 31830,
        "name": "FENGYUN 1C DEB",
        "group": "fengyun-1c-debris",
        "lat": -1.248969302005841,
        "lon": -79.12750551084328,
        "alt_km": 997.1998150705886,
        "timestamp": "2025-12-21T14:40:48.201049+00:00",
        "meta_object_name": "FENGYUN 1C DEB",
        "meta_object_id": "1999-025CHU",
        "meta_epoch": "2025-12-19T06:31:29.496288",
        "meta_mean_motion": 13.8344764,
        "meta_eccentricity": 0.0182552,
        "meta_inclination": 99.163,
        "meta_ra_of_asc_node": 98.7941,
        "meta_arg_of_pericenter": 296.9277,
        "meta_mean_anomaly": 119.258,
        "meta_ephemeris_type": 0,
        "meta_classification_type": "U",
        "meta_norad_cat_id": 31830,
        "meta_element_set_no": 999,
        "meta_rev_at_epoch": 92830,
        "meta_bstar": 0.0015363,
        "meta_mean_motion_dot": 1.879e-05,
        "meta_mean_motion_ddot": 0,
        "tle_line1": "1 31830U 99025CHU 25353.27186917  .00001879  00000+0  15363-2 0  9993",
        "tle_line2": "2 31830  99.1630  98.7941 0182552 296.9277 119.2580 13.83447640928306"
      },
      "geometry": {
        "type": "Point",
        "coordinates": [
          -79.12750551084328,
          -1.248969302005841
        ]
      }
    },
    {
      "type": "Feature",
      "properties": {
        "norad_id": 31834,
        "name": "FENGYUN 1C DEB",
        "group": "fengyun-1c-debris",
        "lat": -57.52566866088482,
        "lon": 21.737297800865342,
        "alt_km": 1007.3343894817735,
        "timestamp": "2025-12-21T14:40:48.201059+00:00",
        "meta_object_name": "FENGYUN 1C DEB",
        "meta_object_id": "1999-025CHY",
        "meta_epoch": "2025-12-20T20:26:22.234272",
        "meta_mean_motion": 14.03159289,
        "meta_eccentricity": 0.01625181,
        "meta_inclination": 98.367,
        "meta_ra_of_asc_node": 214.4081,
        "meta_arg_of_pericenter": 54.7692,
        "meta_mean_anomaly": 306.8567,
        "meta_ephemeris_type": 0,
        "meta_classification_type": "U",
        "meta_norad_cat_id": 31834,
        "meta_element_set_no": 999,
        "meta_rev_at_epoch": 63824,
        "meta_bstar": 0.00023339915,
        "meta_mean_motion_dot": 3.7e-06,
        "meta_mean_motion_ddot": 0,
        "tle_line1": "1 31834U 99025CHY 25354.85164623  .00000370  00000+0  23340-3 0  9992",
        "tle_line2": "2 31834  98.3670 214.4081 0162518  54.7692 306.8567 14.03159289638240"
      },
      "geometry": {
        "type": "Point",
        "coordinates": [
          21.737297800865342,
          -57.52566866088482
        ]
      }
    },
    {
      "type": "Feature",
      "properties": {
        "norad_id": 31837,
        "name": "FENGYUN 1C DEB",
        "group": "fengyun-1c-debris",
        "lat": 30.00476139988277,
        "lon": -104.01862792111847,
        "alt_km": 681.7348357490646,
        "timestamp": "2025-12-21T14:40:48.201069+00:00",
        "meta_object_name": "FENGYUN 1C DEB",
        "meta_object_id": "1999-025CJB",
        "meta_epoch": "2025-12-18T11:29:15.674496",
        "meta_mean_motion": 14.82330224,
        "meta_eccentricity": 0.00931656,
        "meta_inclination": 98.1015,
        "meta_ra_of_asc_node": 68.0911,
        "meta_arg_of_pericenter": 359.156,
        "meta_mean_anomaly": 0.9481,
        "meta_ephemeris_type": 0,
        "meta_classification_type": "U",
        "meta_norad_cat_id": 31837,
        "meta_element_set_no": 999,
        "meta_rev_at_epoch": 98444,
        "meta_bstar": 0.00086076485,
        "meta_mean_motion_dot": 7.369e-05,
        "meta_mean_motion_ddot": 0,
        "tle_line1": "1 31837U 99025CJB 25352.47865364  .00007369  00000+0  86076-3 0  9991",
        "tle_line2": "2 31837  98.1015  68.0911 0093165 359.1560   0.9481 14.82330224984446"
      },
      "geometry": {
        "type": "Point",
        "coordinates": [
          -104.01862792111847,
          30.00476139988277
        ]
      }
    },
    {
      "type": "Feature",
      "properties": {
        "norad_id": 31838,
        "name": "FENGYUN 1C DEB",
        "group": "fengyun-1c-debris",
        "lat": -62.009692976896446,
        "lon": -150.59214803762205,
        "alt_km": 855.9849575870767,
        "timestamp": "2025-12-21T14:40:48.201079+00:00",
        "meta_object_name": "FENGYUN 1C DEB",
        "meta_object_id": "1999-025CJC",
        "meta_epoch": "2025-12-17T08:26:31.079040",
        "meta_mean_motion": 14.21147066,
        "meta_eccentricity": 0.00383301,
        "meta_inclination": 98.7181,
        "meta_ra_of_asc_node": 41.9841,
        "meta_arg_of_pericenter": 82.4051,
        "meta_mean_anomaly": 338.6922,
        "meta_ephemeris_type": 0,
        "meta_classification_type": "U",
        "meta_norad_cat_id": 31838,
        "meta_element_set_no": 999,
        "meta_rev_at_epoch": 64642,
        "meta_bstar": 0.00054487511,
        "meta_mean_motion_dot": 1.15e-05,
        "meta_mean_motion_ddot": 0,
        "tle_line1": "1 31838U 99025CJC 25351.35174860  .00001150  00000+0  54488-3 0  9996",
        "tle_line2": "2 31838  98.7181  41.9841 0038330  82.4051 338.6922 14.21147066646420"
      },
      "geometry": {
        "type": "Point",
        "coordinates": [
          -150.59214803762205,
          -62.009692976896446
        ]
      }
    }
  ]
}